FLOCK 4G-18             
1 62680U 25009BZ  26068.19114186  .00011766  00000+0  44319-3 0  9995
2 62680  97.4054 150.5008 0004100 335.7331  24.3715 15.27241676121267
STARLINK-33960          
1 63966U 25099Q   26068.32733710  .00028557  00000+0  10430-2 0  9999
2 63966  42.9956 178.0221 0000432 252.3904 107.6900 15.27588078 47287
